{
    "links": {
        "self": "http://www.neowsapp.com/rest/v1/neo/3728902?api_key=iIulBulltgU6a56xZRHN4H3l9WmuAYTsLGpBGhQ2"
    },
    "id": "3728902",
    "neo_reference_id": "3728902",
    "name": "(2015 TE)",
    "designation": "2015 TE",
    "nasa_jpl_url": "http://ssd.jpl.nasa.gov/sbdb.cgi?sstr=3728902",
    "absolute_magnitude_h": 22.5,
    "estimated_diameter": {
        "kilometers": {
            "estimated_diameter_min": 0.0840533402,
            "estimated_diameter_max": 0.1879489824
        },
        "meters": {
            "estimated_diameter_min": 84.0533402073,
            "estimated_diameter_max": 187.9489824394
        },
        "miles": {
            "estimated_diameter_min": 0.0522283081,
            "estimated_diameter_max": 0.1167860472
        },
        "feet": {
            "estimated_diameter_min": 275.7655606856,
            "estimated_diameter_max": 616.6305395464
        }
    },
    "is_potentially_hazardous_asteroid": false,
    "close_approach_data": [
        {
            "close_approach_date": "1901-05-21",
            "close_approach_date_full": "1901-May-21 22:08",
            "epoch_date_close_approach": -2165277120000,
            "relative_velocity": {
                "kilometers_per_second": "7.8091004163",
                "kilometers_per_hour": "28112.7614988187",
                "miles_per_hour": "17468.1767213076"
            },
            "miss_distance": {
                "astronomical": "1.0090852748",
                "lunar": "392.5341718972",
                "kilometers": "150957007.758444676",
                "miles": "93800335.0417654888"
            },
            "orbiting_body": "Juptr"
        },
        {
            "close_approach_date": "1904-04-01",
            "close_approach_date_full": "1904-Apr-01 05:21",
            "epoch_date_close_approach": -2074963140000,
            "relative_velocity": {
                "kilometers_per_second": "28.712461165",
                "kilometers_per_hour": "103364.8601940202",
                "miles_per_hour": "64226.904380001"
            },
            "miss_distance": {
                "astronomical": "0.300539443",
                "lunar": "116.909843327",
                "kilometers": "44960060.52378641",
                "miles": "27936886.158856058"
            },
            "orbiting_body": "Earth"
        },
        {
            "close_approach_date": "2015-10-16",
            "close_approach_date_full": "2015-Oct-16 18:01",
            "epoch_date_close_approach": 1445018460000,
            "relative_velocity": {
                "kilometers_per_second": "20.357325113",
                "kilometers_per_hour": "73286.3704066826",
                "miles_per_hour": "45537.3005451968"
            },
            "miss_distance": {
                "astronomical": "0.059028435",
                "lunar": "22.962061215",
                "kilometers": "8830528.14543345",
                "miles": "5487035.75234361"
            },
            "orbiting_body": "Earth"
        }
    ],
    "orbital_data": {
        "orbit_id": "11",
        "orbit_determination_date": "2017-08-10 06:19:27",
        "first_observation_date": "2015-10-02",
        "last_observation_date": "2015-10-17",
        "data_arc_in_days": 15,
        "observations_used": 100,
        "orbit_uncertainty": "8",
        "minimum_orbit_intersection": ".00470632",
        "jupiter_tisserand_invariant": "2.865",
        "epoch_osculation": "2457302.5",
        "eccentricity": ".7511886361277925",
        "semi_major_axis": "2.708633361053627",
        "inclination": "7.614635927153234",
        "ascending_node_longitude": "358.2787274572435",
        "orbital_period": "1628.260028310604",
        "perihelion_distance": ".6739387607935144",
        "perihelion_argument": "102.1925462230503",
        "aphelion_distance": "4.74332796131374",
        "perihelion_time": "2457355.925411998809",
        "mean_anomaly": "348.187913487303",
        "mean_motion": ".2210949072879452",
        "equinox": "J2000",
        "orbit_class": {
            "orbit_class_type": "APO",
            "orbit_class_description": "Near-Earth asteroid orbits which cross the Earth’s orbit similar to that of 1862 Apollo",
            "orbit_class_range": "a (semi-major axis) > 1.0 AU; q (perihelion) < 1.017 AU"
        }
    },
    "is_sentry_object": false
}